NORAD_CAT_ID,OBJECT_NAME,OBJECT_TYPE,EPOCH,MEAN_MOTION,ECCENTRICITY,INCLINATION,RA_OF_ASC_NODE,ARG_OF_PERICENTER,MEAN_ANOMALY,BSTAR,MEAN_MOTION_DOT,MEAN_MOTION_DDOT,TLE_LINE0,TLE_LINE1,TLE_LINE2,SEMIMAJOR_AXIS,PERIOD,APOGEE,PERIGEE,DECAYED
52703.0,STARLINK-4020,PAYLOAD,2023-11-08 19:51:23,15.08877042,0.000159,53.2183,358.2948,105.3881,254.7287,0.00086328,0.00013492,0.0,0 STARLINK-4020,1 52703U 22053AZ  23312.82735627  .00013492  00000-0  86328-3 0  9999,2 52703  53.2183 358.2948 0001590 105.3881 254.7287 15.08877042 82288,6917.767,95.435,540.732,538.532,0.0
52703.0,STARLINK-4020,PAYLOAD,2023-11-09 08:34:28,15.08867338,0.0002519,53.2204,355.9234,133.9788,226.1413,0.0010996,0.00017269,0.0,0 STARLINK-4020,1 52703U 22053AZ  23313.35727126  .00017269  00000-0  10996-2 0  9996,2 52703  53.2204 355.9234 0002519 133.9788 226.1413 15.08867338 82369,6917.797,95.436,541.404,537.919,0.0
52703.0,STARLINK-4020,PAYLOAD,2023-11-10 11:36:01,15.08843578,0.0001613,53.2175,350.8629,112.6647,247.4516,-5.6172e-05,-1.182e-05,0.0,0 STARLINK-4020,1 52703U 22053AZ  23314.48335167 -.00001182  00000-0 -56172-4 0  9998,2 52703  53.2175 350.8629 0001613 112.6647 247.4516 15.08843578 82539,6917.869,95.437,540.85,538.619,0.0
52703.0,STARLINK-4020,PAYLOAD,2023-11-10 19:32:57,15.08844714,0.0001551,53.2175,349.3702,100.3159,259.8008,-0.00014376,-2.576e-05,0.0,0 STARLINK-4020,1 52703U 22053AZ  23314.81455223 -.00002576  00000-0 -14376-3 0  9998,2 52703  53.2175 349.3702 0001551 100.3159 259.8008 15.08844714 81734,6917.866,95.437,540.804,538.658,0.0
52703.0,STARLINK-4020,PAYLOAD,2023-11-11 09:51:25,15.08845621,0.0001634,53.2175,346.6958,94.6675,265.4504,0.00014236,1.979e-05,0.0,0 STARLINK-4020,1 52703U 22053AZ  23315.41071230  .00001979  00000-0  14236-3 0  9996,2 52703  53.2175 346.6958 0001634  94.6675 265.4504 15.08845621 81829,6917.863,95.437,540.859,538.598,0.0
52703.0,STARLINK-4020,PAYLOAD,2023-11-11 19:23:43,15.0885623,0.0001685,53.2174,344.9094,88.3107,271.8078,0.00029112,4.35e-05,0.0,0 STARLINK-4020,1 52703U 22053AZ  23315.80814538  .00004350  00000-0  29112-3 0  9990,2 52703  53.2174 344.9094 0001685  88.3107 271.8078 15.08856230 82732,6917.831,95.437,540.861,538.53,0.0
52703.0,STARLINK-4020,PAYLOAD,2023-11-12 09:42:11,15.0885939,0.0001587,53.2169,342.2352,82.7699,277.3474,0.00029689,4.443e-05,0.0,0 STARLINK-4020,1 52703U 22053AZ  23316.40429920  .00004443  00000-0  29689-3 0  9996,2 52703  53.2169 342.2352 0001587  82.7699 277.3474 15.08859390 81975,6917.821,95.436,540.784,538.588,0.0
52703.0,STARLINK-4020,PAYLOAD,2023-11-12 19:14:30,15.08849487,0.0001704,53.2183,340.4514,87.752,272.3668,0.00012533,1.708e-05,0.0,0 STARLINK-4020,1 52703U 22053AZ  23316.80174257  .00001708  00000-0  12533-3 0  9991,2 52703  53.2183 340.4514 0001704  87.7520 272.3668 15.08849487 82887,6917.851,95.437,540.895,538.538,0.0
52703.0,STARLINK-4020,PAYLOAD,2023-11-13 01:36:03,15.08842239,0.0001648,53.2184,339.2623,91.6765,268.4416,-4.9253e-06,-3.66e-06,0.0,0 STARLINK-4020,1 52703U 22053AZ  23317.06670664 -.00000366  00000-0 -49253-5 0  9995,2 52703  53.2184 339.2623 0001648  91.6765 268.4416 15.08842239 82927,6917.874,95.437,540.879,538.598,0.0
52703.0,STARLINK-4020,PAYLOAD,2023-11-13 11:08:22,15.08835185,0.0001537,53.2169,337.4765,102.9854,257.131,-0.0001262,-2.296e-05,0.0,0 STARLINK-4020,1 52703U 22053AZ  23317.46414864 -.00002296  00000-0 -12620-3 0  9997,2 52703  53.2169 337.4765 0001537 102.9854 257.1310 15.08835185 82132,6917.895,95.438,540.823,538.697,0.0
52703.0,STARLINK-4020,PAYLOAD,2023-11-14 01:26:50,15.08839196,0.0001398,53.2176,334.801,96.3827,263.7324,-4.5226e-05,-1.008e-05,0.0,0 STARLINK-4020,1 52703U 22053AZ  23318.06031103 -.00001008  00000-0 -45226-4 0  9994,2 52703  53.2176 334.8010 0001398  96.3827 263.7324 15.08839196 83073,6917.883,95.438,540.715,538.781,0.0
52703.0,STARLINK-4020,PAYLOAD,2023-11-14 07:48:23,15.0883874,0.0001324,53.218,333.612,93.3746,266.7398,-2.0228e-05,-6.1e-06,0.0,0 STARLINK-4020,1 52703U 22053AZ  23318.32527127 -.00000610  00000-0 -20228-4 0  9992,2 52703  53.2180 333.6120 0001324  93.3746 266.7398 15.08838740 82261,6917.884,95.438,540.665,538.833,0.0
52703.0,STARLINK-4020,PAYLOAD,2023-11-15 06:03:47,15.08832159,0.0001573,53.2183,329.4481,96.8286,263.2885,0.00014336,1.994e-05,0.0,0 STARLINK-4020,1 52703U 22053AZ  23319.25263586  .00001994  00000-0  14336-3 0  9997,2 52703  53.2183 329.4481 0001573  96.8286 263.2885 15.08832159 83251,6917.904,95.438,540.858,538.681,0.0
52703.0,STARLINK-4020,PAYLOAD,2023-11-16 07:29:58,15.08838512,0.0001445,53.2181,324.6895,96.716,263.3997,0.00010437,1.373e-05,0.0,0 STARLINK-4020,1 52703U 22053AZ  23320.31247698  .00001373  00000-0  10437-3 0  9991,2 52703  53.2181 324.6895 0001445  96.7160 263.3997 15.08838512 83415,6917.885,95.438,540.75,538.75,0.0
52703.0,STARLINK-4020,PAYLOAD,2023-11-16 17:02:17,15.08835988,0.0001443,53.2182,322.9054,95.0249,265.0908,9.06e-05,1.154e-05,0.0,0 STARLINK-4020,1 52703U 22053AZ  23320.70991974  .00001154  00000-0  90600-4 0  9995,2 52703  53.2182 322.9054 0001443  95.0249 265.0908 15.08835988 82629,6917.893,95.438,540.756,538.759,0.0
52703.0,STARLINK-4020,PAYLOAD,2023-11-17 10:31:31,15.08840193,0.000145,53.218,319.6352,97.986,262.1297,0.00010298,1.351e-05,0.0,0 STARLINK-4020,1 52703U 22053AZ  23321.43855835  .00001351  00000-0  10298-3 0  9994,2 52703  53.2180 319.6352 0001450  97.9860 262.1297 15.08840193 83588,6917.88,95.438,540.748,538.742,0.0
52703.0,STARLINK-4020,PAYLOAD,2023-11-17 16:53:04,15.08837349,0.0001402,53.2179,318.4451,95.2482,264.867,8.0228e-05,9.89e-06,0.0,0 STARLINK-4020,1 52703U 22053AZ  23321.70352100  .00000989  00000-0  80228-4 0  9998,2 52703  53.2179 318.4451 0001402  95.2482 264.8670 15.08837349 82774,6917.888,95.438,540.723,538.784,0.0
52703.0,STARLINK-4020,PAYLOAD,2023-11-18 04:00:46,15.08832432,0.000147,53.2183,316.364,97.9648,262.1511,1.5816e-05,-3.6e-07,0.0,0 STARLINK-4020,1 52703U 22053AZ  23322.16720730 -.00000036  00000-0  15816-4 0  9992,2 52703  53.2183 316.3640 0001470  97.9648 262.1511 15.08832432 83699,6917.904,95.438,540.785,538.752,0.0
52703.0,STARLINK-4020,PAYLOAD,2023-11-18 08:46:55,15.08837378,0.0001573,53.2183,315.4721,102.4988,257.618,5.098e-05,5.23e-06,0.0,0 STARLINK-4020,1 52703U 22053AZ  23322.36592432  .00000523  00000-0  50980-4 0  9991,2 52703  53.2183 315.4721 0001573 102.4988 257.6180 15.08837378 82876,6917.888,95.438,540.842,538.665,0.0
52703.0,STARLINK-4020,PAYLOAD,2023-11-18 16:43:51,15.08840497,0.0001497,53.2191,313.9848,99.6663,260.4498,1.1862e-05,-9.9e-07,0.0,0 STARLINK-4020,1 52703U 22053AZ  23322.69712346 -.00000099  00000-0  11862-4 0  9990,2 52703  53.2191 313.9848 0001497  99.6663 260.4498 15.08840497 83770,6917.879,95.438,540.779,538.708,0.0
52703.0,STARLINK-4020,PAYLOAD,2023-11-19 07:02:19,15.08842531,0.0001545,53.2185,311.3096,90.6669,269.4501,7.4949e-05,9.05e-06,0.0,0 STARLINK-4020,1 52703U 22053AZ  23323.29328262  .00000905  00000-0  74949-4 0  9997,2 52703  53.2185 311.3096 0001545  90.6669 269.4501 15.08842531 83013,6917.873,95.437,540.806,538.669,0.0
52703.0,STARLINK-4020,PAYLOAD,2023-11-19 16:34:38,15.0884686,0.0001589,53.2187,309.5255,90.741,269.3764,5.5677e-05,5.98e-06,0.0,0 STARLINK-4020,1 52703U 22053AZ  23323.69071979  .00000598  00000-0  55677-4 0  9996,2 52703  53.2187 309.5255 0001589  90.7410 269.3764 15.08846860 83079,6917.859,95.437,540.824,538.625,0.0
52703.0,STARLINK-4020,PAYLOAD,2023-11-20 03:42:20,15.08843652,0.0001605,53.2186,307.4435,86.8172,273.3003,0.00014223,1.977e-05,0.0,0 STARLINK-4020,1 52703U 22053AZ  23324.15439902  .00001977  00000-0  14223-3 0  9995,2 52703  53.2186 307.4435 0001605  86.8172 273.3003 15.08843652 83993,6917.869,95.437,540.845,538.624,0.0
52703.0,STARLINK-4020,PAYLOAD,2023-11-20 05:17:42,15.08849235,0.0001363,53.2169,307.1471,102.6041,257.5104,0.00012093,1.638e-05,0.0,0 STARLINK-4020,1 52703U 22053AZ  23324.22063564  .00001638  00000-0  12093-3 0  9997,2 52703  53.2169 307.1471 0001363 102.6041 257.5104 15.08849235 83151,6917.852,95.437,540.66,538.774,0.0
52703.0,STARLINK-4020,PAYLOAD,2023-11-20 16:25:25,15.08841444,0.0001473,53.2173,305.0614,111.8716,248.2433,9.0623e-05,1.155e-05,0.0,0 STARLINK-4020,1 52703U 22053AZ  23324.68431987  .00001155  00000-0  90623-4 0  9995,2 52703  53.2173 305.0614 0001473 111.8716 248.2433 15.08841444 83229,6917.876,95.437,540.76,538.722,0.0
52703.0,STARLINK-4020,PAYLOAD,2023-11-21 03:33:07,15.08840854,0.0001604,53.2181,302.9829,87.7905,272.3271,5.7882e-05,6.33e-06,0.0,0 STARLINK-4020,1 52703U 22053AZ  23325.14800222  .00000633  00000-0  57882-4 0  9999,2 52703  53.2181 302.9829 0001604  87.7905 272.3271 15.08840854 84143,6917.878,95.438,540.852,538.633,0.0
52703.0,STARLINK-4020,PAYLOAD,2023-11-21 08:19:16,15.08845961,0.0001537,53.2179,302.0885,94.9231,265.1937,4.9771e-05,5.04e-06,0.0,0 STARLINK-4020,1 52703U 22053AZ  23325.34671853  .00000504  00000-0  49771-4 0  9992,2 52703  53.2179 302.0885 0001537  94.9231 265.1937 15.08845961 83322,6917.862,95.437,540.79,538.664,0.0
52703.0,STARLINK-4020,PAYLOAD,2023-11-22 08:10:03,15.08849998,0.0001669,53.2179,297.6269,101.9901,258.1278,8.7833e-05,1.11e-05,0.0,0 STARLINK-4020,1 52703U 22053AZ  23326.34031273  .00001110  00000-0  87833-4 0  9994,2 52703  53.2179 297.6269 0001669 101.9901 258.1278 15.08849998 84321,6917.85,95.437,540.869,538.56,0.0
52703.0,STARLINK-4020,PAYLOAD,2023-11-23 03:14:41,15.08831933,0.0001908,53.2168,294.0556,114.2618,245.8574,-2.6455e-05,-7.09e-06,0.0,0 STARLINK-4020,1 52703U 22053AZ  23327.13520643 -.00000709  00000-0 -26455-4 0  9994,2 52703  53.2168 294.0556 0001908 114.2618 245.8574 15.08831933 84442,6917.905,95.438,541.09,538.45,0.0
52703.0,STARLINK-4020,PAYLOAD,2023-11-23 04:50:04,15.08832932,0.0001892,53.2171,293.7566,110.0457,250.0739,8.7132e-07,-2.74e-06,0.0,0 STARLINK-4020,1 52703U 22053AZ  23327.20144609 -.00000274  00000-0  87132-6 0  9993,2 52703  53.2171 293.7566 0001892 110.0457 250.0739 15.08832932 83608,6917.902,95.438,541.076,538.458,0.0
